NORAD_CAT_ID,OBJECT_NAME,OBJECT_TYPE,EPOCH,MEAN_MOTION,ECCENTRICITY,INCLINATION,RA_OF_ASC_NODE,ARG_OF_PERICENTER,MEAN_ANOMALY,BSTAR,MEAN_MOTION_DOT,MEAN_MOTION_DDOT,TLE_LINE0,TLE_LINE1,TLE_LINE2,SEMIMAJOR_AXIS,PERIOD,APOGEE,PERIGEE,DECAYED
52306.0,STARLINK-3747,PAYLOAD,2023-10-16 01:53:37,15.08838057,0.000142,53.2178,59.8891,90.2408,269.8747,6.8208e-05,7.98e-06,0.0,0 STARLINK-3747,1 52306U 22041AX  23289.07890562  .00000798  00000-0  68208-4 0  9998,2 52306  53.2178  59.8891 0001420  90.2408 269.8747 15.08838057 83676,6917.886,95.438,540.734,538.769,0.0
52306.0,STARLINK-3747,PAYLOAD,2023-10-16 14:36:42,15.08854377,0.0001482,53.2175,57.5103,89.2413,270.8749,0.00068124,0.00010575,0.0,0 STARLINK-3747,1 52306U 22041AX  23289.60882428  .00010575  00000-0  68124-3 0  9999,2 52306  53.2175  57.5103 0001482  89.2413 270.8749 15.08854377 83752,6917.836,95.437,540.727,538.676,0.0
52306.0,STARLINK-3747,PAYLOAD,2023-10-16 16:12:05,15.08861033,0.0001507,53.217,57.2127,90.2269,269.8896,0.0010258,0.00016085,0.0,0 STARLINK-3747,1 52306U 22041AX  23289.67506424  .00016085  00000-0  10258-2 0  9991,2 52306  53.2170  57.2127 0001507  90.2269 269.8896 15.08861033 83768,6917.816,95.436,540.724,538.639,0.0
52306.0,STARLINK-3747,PAYLOAD,2023-10-18 01:35:11,15.08861989,0.0001667,53.217,50.9687,80.6949,279.4232,0.0010182,0.00015964,0.0,0 STARLINK-3747,1 52306U 22041AX  23291.06610296  .00015964  00000-0  10182-2 0  9991,2 52306  53.2170  50.9687 0001667  80.6949 279.4232 15.08861989 83978,6917.813,95.436,540.831,538.525,0.0
52306.0,STARLINK-3747,PAYLOAD,2023-10-18 11:07:30,15.0883411,0.0001061,53.2175,49.1853,77.417,282.6941,0.00079929,0.00012454,0.0,0 STARLINK-3747,1 52306U 22041AX  23291.46354225  .00012454  00000-0  79929-3 0  9998,2 52306  53.2175  49.1853 0001061  77.4170 282.6941 15.08834110 84033,6917.898,95.438,540.497,539.029,0.0
52306.0,STARLINK-3747,PAYLOAD,2023-10-18 14:18:16,15.08836677,0.0001139,53.2174,48.5906,77.9499,282.1621,0.00045452,6.953e-05,0.0,0 STARLINK-3747,1 52306U 22041AX  23291.59602277  .00006953  00000-0  45452-3 0  9996,2 52306  53.2174  48.5906 0001139  77.9499 282.1621 15.08836677 84051,6917.891,95.438,540.543,538.968,0.0
52306.0,STARLINK-3747,PAYLOAD,2023-10-19 12:33:39,15.08857644,0.0001456,53.2174,44.4251,96.4911,263.6247,0.00074349,0.0001157,0.0,0 STARLINK-3747,1 52306U 22041AX  23292.52337713  .00011570  00000-0  74349-3 0  9998,2 52306  53.2174  44.4251 0001456  96.4911 263.6247 15.08857644 84196,6917.826,95.436,540.699,538.684,0.0
52306.0,STARLINK-3747,PAYLOAD,2023-10-19 17:19:48,15.08867188,0.000156,53.2176,43.5316,103.4616,256.655,0.00082608,0.00012893,0.0,0 STARLINK-3747,1 52306U 22041AX  23292.72209250  .00012893  00000-0  82608-3 0  9990,2 52306  53.2176  43.5316 0001560 103.4616 256.6550 15.08867188 84224,6917.797,95.436,540.741,538.583,0.0
52306.0,STARLINK-3747,PAYLOAD,2023-10-20 12:24:26,15.08841922,0.0001529,53.2182,39.9645,99.1585,260.958,4.2507e-05,3.89e-06,0.0,0 STARLINK-3747,1 52306U 22041AX  23293.51697713  .00000389  00000-0  42507-4 0  9995,2 52306  53.2182  39.9645 0001529  99.1585 260.9580 15.08841922 84348,6917.875,95.437,540.797,538.682,0.0
52306.0,STARLINK-3747,PAYLOAD,2023-10-21 12:15:14,15.0883949,0.000169,53.2191,35.5059,96.1111,264.0073,0.00014181,1.97e-05,0.0,0 STARLINK-3747,1 52306U 22041AX  23294.51058181  .00001970  00000-0  14181-3 0  9999,2 52306  53.2191  35.5059 0001690  96.1111 264.0073 15.08839490 84495,6917.882,95.438,540.916,538.578,0.0
52306.0,STARLINK-3747,PAYLOAD,2023-10-22 12:06:01,15.08832735,0.0001936,53.2202,31.0506,109.8901,250.2299,7.1756e-05,8.54e-06,0.0,0 STARLINK-3747,1 52306U 22041AX  23295.50418810  .00000854  00000-0  71756-4 0  9990,2 52306  53.2202  31.0506 0001936 109.8901 250.2299 15.08832735 84647,6917.903,95.438,541.107,538.428,0.0
52306.0,STARLINK-3747,PAYLOAD,2023-10-22 13:41:24,15.08833726,0.0001895,53.2201,30.7543,110.2544,249.8652,8.4568e-05,1.058e-05,0.0,0 STARLINK-3747,1 52306U 22041AX  23295.57042791  .00001058  00000-0  84568-4 0  9990,2 52306  53.2201  30.7543 0001895 110.2544 249.8652 15.08833726 84655,6917.9,95.438,541.076,538.454,0.0
52306.0,STARLINK-3747,PAYLOAD,2023-10-23 11:56:49,15.08832433,0.0001637,53.2195,26.5891,99.9593,260.1584,-3.6312e-05,-8.66e-06,0.0,0 STARLINK-3747,1 52306U 22041AX  23296.49779333 -.00000866  00000-0 -36312-4 0  9993,2 52306  53.2195  26.5891 0001637  99.9593 260.1584 15.08832433 84796,6917.904,95.438,540.901,538.636,0.0
52306.0,STARLINK-3747,PAYLOAD,2023-10-24 05:26:04,15.08835444,0.0001763,53.2207,23.315,83.0211,277.0982,0.00015187,2.129e-05,0.0,0 STARLINK-3747,1 52306U 22041AX  23297.22643606  .00002129  00000-0  15187-3 0  9996,2 52306  53.2207  23.3150 0001763  83.0211 277.0982 15.08835444 84901,6917.894,95.438,540.979,538.54,0.0
52306.0,STARLINK-3747,PAYLOAD,2023-10-24 11:47:36,15.08832423,0.0001673,53.2191,22.1271,91.0361,269.0823,0.00043489,6.639e-05,0.0,0 STARLINK-3747,1 52306U 22041AX  23297.49139715  .00006639  00000-0  43489-3 0  9992,2 52306  53.2191  22.1271 0001673  91.0361 269.0823 15.08832423 84942,6917.904,95.438,540.926,538.611,0.0
52306.0,STARLINK-3747,PAYLOAD,2023-10-25 11:38:23,15.08844929,0.0001517,53.2195,17.6672,96.7972,263.3193,0.00013942,1.932e-05,0.0,0 STARLINK-3747,1 52306U 22041AX  23298.48499070  .00001932  00000-0  13942-3 0  9997,2 52306  53.2195  17.6672 0001517  96.7972 263.3193 15.08844929 85095,6917.865,95.437,540.78,538.681,0.0
52306.0,STARLINK-3747,PAYLOAD,2023-10-26 11:29:08,15.08867641,0.0001919,53.2199,13.2054,136.1208,223.9936,0.00024885,3.677e-05,0.0,0 STARLINK-3747,1 52306U 22041AX  23299.47856970  .00003677  00000-0  24885-3 0  9999,2 52306  53.2199  13.2054 0001919 136.1208 223.9936 15.08867641 85242,6917.796,95.436,540.988,538.333,0.0
52306.0,STARLINK-3747,PAYLOAD,2023-10-26 22:36:51,15.08848626,0.0001568,53.2192,11.1252,86.7576,273.3595,0.00013682,1.891e-05,0.0,0 STARLINK-3747,1 52306U 22041AX  23299.94226601  .00001891  00000-0  13682-3 0  9992,2 52306  53.2192  11.1252 0001568  86.7576 273.3595 15.08848626 85310,6917.854,95.437,540.804,538.634,0.0
52306.0,STARLINK-3747,PAYLOAD,2023-10-27 11:19:56,15.08854481,0.0001865,53.2195,8.7446,104.6773,255.4426,7.4575e-05,8.99e-06,0.0,0 STARLINK-3747,1 52306U 22041AX  23300.47218166  .00000899  00000-0  74575-4 0  9996,2 52306  53.2195   8.7446 0001865 104.6773 255.4426 15.08854481 85397,6917.836,95.437,540.991,538.411,0.0
52306.0,STARLINK-3747,PAYLOAD,2023-10-28 00:03:02,15.08839604,0.0001479,53.2194,6.3657,109.0421,251.0732,-8.9475e-06,-4.3e-06,0.0,0 STARLINK-3747,1 52306U 22041AX  23301.00210691 -.00000430  00000-0 -89475-5 0  9990,2 52306  53.2194   6.3657 0001479 109.0421 251.0732 15.08839604 85475,6917.882,95.438,540.77,538.723,0.0
52306.0,STARLINK-3747,PAYLOAD,2023-10-28 11:10:44,15.08834645,0.0001653,53.2192,4.2843,86.0213,274.0969,-5.0888e-05,-1.098e-05,0.0,0 STARLINK-3747,1 52306U 22041AX  23301.46579215 -.00001098  00000-0 -50888-4 0  9996,2 52306  53.2192   4.2843 0001653  86.0213 274.0969 15.08834645 85549,6917.897,95.438,540.905,538.618,0.0
52306.0,STARLINK-3747,PAYLOAD,2023-10-29 11:01:30,15.08860244,0.0001515,53.2181,359.8232,78.076,282.0402,0.00027287,4.06e-05,0.0,0 STARLINK-3747,1 52306U 22041AX  23302.45938049  .00004060  00000-0  27287-3 0  9996,2 52306  53.2181 359.8232 0001515  78.0760 282.0402 15.08860244 85694,6917.819,95.436,540.732,538.635,0.0
52306.0,STARLINK-3747,PAYLOAD,2023-10-30 10:52:18,15.08832764,0.0001686,53.2179,355.3654,98.4224,261.6959,0.00010561,1.393e-05,0.0,0 STARLINK-3747,1 52306U 22041AX  23303.45299649  .00001393  00000-0  10561-3 0  9996,2 52306  53.2179 355.3654 0001686  98.4224 261.6959 15.08832764 85843,6917.903,95.438,540.934,538.601,0.0
52306.0,STARLINK-3747,PAYLOAD,2023-10-30 20:24:37,15.08832463,0.0001749,53.2184,353.5797,83.3002,276.8189,-3.7856e-05,-8.9e-06,0.0,0 STARLINK-3747,1 52306U 22041AX  23303.85043721 -.00000890  00000-0 -37856-4 0  9998,2 52306  53.2184 353.5797 0001749  83.3002 276.8189 15.08832463 85900,6917.903,95.438,540.978,538.558,0.0
52306.0,STARLINK-3747,PAYLOAD,2023-10-31 12:18:29,15.08842448,0.000186,53.2195,350.6058,79.8797,280.2405,-5.7938e-05,-1.21e-05,0.0,0 STARLINK-3747,1 52306U 22041AX  23304.51284040 -.00001210  00000-0 -57938-4 0  9993,2 52306  53.2195 350.6058 0001860  79.8797 280.2405 15.08842448 86001,6917.873,95.437,541.025,538.451,0.0
52306.0,STARLINK-3747,PAYLOAD,2023-11-01 02:36:58,15.08831882,0.0001946,53.219,347.9298,88.6151,271.5064,0.00025329,3.744e-05,0.0,0 STARLINK-3747,1 52306U 22041AX  23305.10900573  .00003744  00000-0  25329-3 0  9995,2 52306  53.2190 347.9298 0001946  88.6151 271.5064 15.08831882 86091,6917.905,95.438,541.116,538.424,0.0
52306.0,STARLINK-3747,PAYLOAD,2023-11-01 10:33:53,15.08844963,0.000182,53.218,346.4447,84.5284,275.5915,0.00026068,3.864e-05,0.0,0 STARLINK-3747,1 52306U 22041AX  23305.44020065  .00003864  00000-0  26068-3 0  9995,2 52306  53.2180 346.4447 0001820  84.5284 275.5915 15.08844963 86142,6917.865,95.437,540.989,538.471,0.0
52306.0,STARLINK-3747,PAYLOAD,2023-11-01 20:06:12,15.0884178,0.0001843,53.2181,344.66,91.183,268.9373,0.0002583,3.825e-05,0.0,0 STARLINK-3747,1 52306U 22041AX  23305.83764207  .00003825  00000-0  25830-3 0  9994,2 52306  53.2181 344.6600 0001843  91.1830 268.9373 15.08841780 86205,6917.875,95.437,541.015,538.465,0.0
52306.0,STARLINK-3747,PAYLOAD,2023-11-02 12:00:03,15.08849301,0.0001752,53.2175,341.6825,98.7781,261.341,0.00019958,2.89e-05,0.0,0 STARLINK-3747,1 52306U 22041AX  23306.50003693  .00002890  00000-0  19958-3 0  9999,2 52306  53.2175 341.6825 0001752  98.7781 261.3410 15.08849301 86308,6917.852,95.437,540.929,538.505,0.0
52306.0,STARLINK-3747,PAYLOAD,2023-11-02 19:56:59,15.08841495,0.0002043,53.2195,340.1951,100.1924,259.9299,6.8042e-05,7.95e-06,0.0,0 STARLINK-3747,1 52306U 22041AX  23306.83124112  .00000795  00000-0  68042-4 0  9996,2 52306  53.2195 340.1951 0002043 100.1924 259.9299 15.08841495 86354,6917.876,95.437,541.154,538.327,0.0
